{
  "type": "FeatureCollection",
  "features": [
    {
      "type": "Feature",
      "properties": {
        "norad_id": 26766,
        "name": "INTELSAT 10 (IS-10)",
        "group": "intelsat",
        "lat": -8.6689210522349,
        "lon": -27.618538596609657,
        "alt_km": 36102.15627354429,
        "timestamp": "2025-12-23T09:49:06.743635+00:00",
        "meta_object_name": "INTELSAT 10 (IS-10)",
        "meta_object_id": "2001-019A",
        "meta_epoch": "2025-12-22T17:02:39.635808",
        "meta_mean_motion": 0.99073291,
        "meta_eccentricity": 0.00077896,
        "meta_inclination": 8.6516,
        "meta_ra_of_asc_node": 61.0562,
        "meta_arg_of_pericenter": 228.8792,
        "meta_mean_anomaly": 153.0858,
        "meta_ephemeris_type": 0,
        "meta_classification_type": "U",
        "meta_norad_cat_id": 26766,
        "meta_element_set_no": 999,
        "meta_rev_at_epoch": 4383,
        "meta_bstar": 0,
        "meta_mean_motion_dot": -4.3e-07,
        "meta_mean_motion_ddot": 0,
        "tle_line1": "1 26766U 01019A   25356.71018097 -.00000043  00000+0  00000+0 0  9998",
        "tle_line2": "2 26766   8.6516  61.0562 0007789 228.8792 153.0858  0.99073291 43832"
      },
      "geometry": {
        "type": "Point",
        "coordinates": [
          -27.618538596609657,
          -8.6689210522349
        ]
      }
    },
    {
      "type": "Feature",
      "properties": {
        "norad_id": 26900,
        "name": "INTELSAT 902 (IS-902)",
        "group": "intelsat",
        "lat": 5.131958733271439,
        "lon": -170.63570063570347,
        "alt_km": 35781.46496045538,
        "timestamp": "2025-12-23T09:49:06.743660+00:00",
        "meta_object_name": "INTELSAT 902 (IS-902)",
        "meta_object_id": "2001-039A",
        "meta_epoch": "2025-12-15T13:09:02.081664",
        "meta_mean_motion": 1.0027087,
        "meta_eccentricity": 0.00045028,
        "meta_inclination": 5.6536,
        "meta_ra_of_asc_node": 74.0372,
        "meta_arg_of_pericenter": 189.6359,
        "meta_mean_anomaly": 327.9329,
        "meta_ephemeris_type": 0,
        "meta_classification_type": "U",
        "meta_norad_cat_id": 26900,
        "meta_element_set_no": 999,
        "meta_rev_at_epoch": 8885,
        "meta_bstar": 0,
        "meta_mean_motion_dot": -2.65e-06,
        "meta_mean_motion_ddot": 0,
        "tle_line1": "1 26900U 01039A   25349.54794076 -.00000265  00000+0  00000+0 0  9997",
        "tle_line2": "2 26900   5.6536  74.0372 0004502 189.6359 327.9329  1.00270870 88858"
      },
      "geometry": {
        "type": "Point",
        "coordinates": [
          -170.63570063570347,
          5.131958733271439
        ]
      }
    },
    {
      "type": "Feature",
      "properties": {
        "norad_id": 27380,
        "name": "INTELSAT 904 (IS-904)",
        "group": "intelsat",
        "lat": 4.442684256896863,
        "lon": -151.86237625706397,
        "alt_km": 35795.39713283187,
        "timestamp": "2025-12-23T09:49:06.743676+00:00",
        "meta_object_name": "INTELSAT 904 (IS-904)",
        "meta_object_id": "2002-007A",
        "meta_epoch": "2025-12-22T11:18:11.320704",
        "meta_mean_motion": 1.00267487,
        "meta_eccentricity": 0.00022149,
        "meta_inclination": 6.4781,
        "meta_ra_of_asc_node": 71.3212,
        "meta_arg_of_pericenter": 339.1477,
        "meta_mean_anomaly": 178.8339,
        "meta_ephemeris_type": 0,
        "meta_classification_type": "U",
        "meta_norad_cat_id": 27380,
        "meta_element_set_no": 999,
        "meta_rev_at_epoch": 4999,
        "meta_bstar": 0,
        "meta_mean_motion_dot": -2.08e-06,
        "meta_mean_motion_ddot": 0,
        "tle_line1": "1 27380U 02007A   25356.47096436 -.00000208  00000+0  00000+0 0  9998",
        "tle_line2": "2 27380   6.4781  71.3212 0002214 339.1477 178.8339  1.00267487 49992"
      },
      "geometry": {
        "type": "Point",
        "coordinates": [
          -151.86237625706397,
          4.442684256896863
        ]
      }
    },
    {
      "type": "Feature",
      "properties": {
        "norad_id": 27426,
        "name": "DIRECTV 5 (TEMPO 1)",
        "group": "intelsat",
        "lat": 3.5005733193201647,
        "lon": 129.25321598179917,
        "alt_km": 35797.29281481359,
        "timestamp": "2025-12-23T09:49:06.743690+00:00",
        "meta_object_name": "DIRECTV 5 (TEMPO 1)",
        "meta_object_id": "2002-023A",
        "meta_epoch": "2025-12-22T21:12:00.760896",
        "meta_mean_motion": 1.00271742,
        "meta_eccentricity": 0.00032076,
        "meta_inclination": 4.4264,
        "meta_ra_of_asc_node": 77.5344,
        "meta_arg_of_pericenter": 200.9291,
        "meta_mean_anomaly": 21.1023,
        "meta_ephemeris_type": 0,
        "meta_classification_type": "U",
        "meta_norad_cat_id": 27426,
        "meta_element_set_no": 999,
        "meta_rev_at_epoch": 8635,
        "meta_bstar": 0,
        "meta_mean_motion_dot": -3.8e-07,
        "meta_mean_motion_ddot": 0,
        "tle_line1": "1 27426U 02023A   25356.88334214 -.00000038  00000+0  00000+0 0  9992",
        "tle_line2": "2 27426   4.4264  77.5344 0003207 200.9291  21.1023  1.00271742 86353"
      },
      "geometry": {
        "type": "Point",
        "coordinates": [
          129.25321598179917,
          3.5005733193201647
        ]
      }
    },
    {
      "type": "Feature",
      "properties": {
        "norad_id": 27438,
        "name": "INTELSAT 905 (IS-905)",
        "group": "intelsat",
        "lat": 3.2051445430605106,
        "lon": 102.12199898437206,
        "alt_km": 35796.70931357951,
        "timestamp": "2025-12-23T09:49:06.743703+00:00",
        "meta_object_name": "INTELSAT 905 (IS-905)",
        "meta_object_id": "2002-027A",
        "meta_epoch": "2025-12-22T11:32:40.739712",
        "meta_mean_motion": 1.00273062,
        "meta_eccentricity": 0.00027239,
        "meta_inclination": 6.3084,
        "meta_ra_of_asc_node": 71.9438,
        "meta_arg_of_pericenter": 204.9148,
        "meta_mean_anomaly": 210.3946,
        "meta_ephemeris_type": 0,
        "meta_classification_type": "U",
        "meta_norad_cat_id": 27438,
        "meta_element_set_no": 999,
        "meta_rev_at_epoch": 4959,
        "meta_bstar": 0,
        "meta_mean_motion_dot": 1.12e-06,
        "meta_mean_motion_ddot": 0,
        "tle_line1": "1 27438U 02027A   25356.48102708  .00000112  00000+0  00000+0 0  9998",
        "tle_line2": "2 27438   6.3084  71.9438 0002723 204.9148 210.3946  1.00273062 49594"
      },
      "geometry": {
        "type": "Point",
        "coordinates": [
          102.12199898437206,
          3.2051445430605106
        ]
      }
    },
    {
      "type": "Feature",
      "properties": {
        "norad_id": 27445,
        "name": "GALAXY 3C (G-3C)",
        "group": "intelsat",
        "lat": 2.979779577074723,
        "lon": 144.57696318288833,
        "alt_km": 35781.13548836153,
        "timestamp": "2025-12-23T09:49:06.743716+00:00",
        "meta_object_name": "GALAXY 3C (G-3C)",
        "meta_object_id": "2002-030A",
        "meta_epoch": "2025-12-22T21:16:22.842336",
        "meta_mean_motion": 1.00271667,
        "meta_eccentricity": 0.00011537,
        "meta_inclination": 3.2875,
        "meta_ra_of_asc_node": 80.3997,
        "meta_arg_of_pericenter": 82.1195,
        "meta_mean_anomaly": 153.4043,
        "meta_ephemeris_type": 0,
        "meta_classification_type": "U",
        "meta_norad_cat_id": 27445,
        "meta_element_set_no": 999,
        "meta_rev_at_epoch": 4472,
        "meta_bstar": 0,
        "meta_mean_motion_dot": -1.33e-06,
        "meta_mean_motion_ddot": 0,
        "tle_line1": "1 27445U 02030A   25356.88637549 -.00000133  00000+0  00000+0 0  9994",
        "tle_line2": "2 27445   3.2875  80.3997 0001153  82.1195 153.4043  1.00271667 44728"
      },
      "geometry": {
        "type": "Point",
        "coordinates": [
          144.57696318288833,
          2.979779577074723
        ]
      }
    },
    {
      "type": "Feature",
      "properties": {
        "norad_id": 27513,
        "name": "INTELSAT 906 (IS-906)",
        "group": "intelsat",
        "lat": -4.03499330541866,
        "lon": -56.47039878068144,
        "alt_km": 35762.50946806059,
        "timestamp": "2025-12-23T09:49:06.743728+00:00",
        "meta_object_name": "INTELSAT 906 (IS-906)",
        "meta_object_id": "2002-041A",
        "meta_epoch": "2025-12-22T20:19:05.827008",
        "meta_mean_motion": 1.00273289,
        "meta_eccentricity": 0.00062961,
        "meta_inclination": 5.3553,
        "meta_ra_of_asc_node": 75.111,
        "meta_arg_of_pericenter": 200.9924,
        "meta_mean_anomaly": 184.4567,
        "meta_ephemeris_type": 0,
        "meta_classification_type": "U",
        "meta_norad_cat_id": 27513,
        "meta_element_set_no": 999,
        "meta_rev_at_epoch": 8526,
        "meta_bstar": 0,
        "meta_mean_motion_dot": 3.1e-07,
        "meta_mean_motion_ddot": 0,
        "tle_line1": "1 27513U 02041A   25356.84659522  .00000031  00000+0  00000+0 0  9999",
        "tle_line2": "2 27513   5.3553  75.1110 0006296 200.9924 184.4567  1.00273289 85263"
      },
      "geometry": {
        "type": "Point",
        "coordinates": [
          -56.47039878068144,
          -4.03499330541866
        ]
      }
    }
  ]
}